{
  "links" : {
    "next" : "https://api.nasa.gov/neo/rest/v1/feed?start_date=2006-05-16&end_date=2006-05-16&detailed=true&api_key=t0TVs3DtDT2H8Oy2Zy8m2eVrNsAVKAexjcZXUckd",
    "prev" : "https://api.nasa.gov/neo/rest/v1/feed?start_date=2006-05-14&end_date=2006-05-14&detailed=true&api_key=t0TVs3DtDT2H8Oy2Zy8m2eVrNsAVKAexjcZXUckd",
    "self" : "https://api.nasa.gov/neo/rest/v1/feed?start_date=2006-05-15&end_date=2006-05-15&detailed=true&api_key=t0TVs3DtDT2H8Oy2Zy8m2eVrNsAVKAexjcZXUckd"
  },
  "element_count" : 7,
  "near_earth_objects" : {
    "2006-05-15" : [ {
      "links" : {
        "self" : "https://api.nasa.gov/neo/rest/v1/neo/3736805?api_key=t0TVs3DtDT2H8Oy2Zy8m2eVrNsAVKAexjcZXUckd"
      },
      "neo_reference_id" : "3736805",
      "name" : "(2015 XT378)",
      "nasa_jpl_url" : "http://ssd.jpl.nasa.gov/sbdb.cgi?sstr=3736805",
      "absolute_magnitude_h" : 27.9,
      "estimated_diameter" : {
        "kilometers" : {
          "estimated_diameter_min" : 0.0069912523,
          "estimated_diameter_max" : 0.0156329154
        },
        "meters" : {
          "estimated_diameter_min" : 6.9912523225,
          "estimated_diameter_max" : 15.6329154409
        },
        "miles" : {
          "estimated_diameter_min" : 0.0043441614,
          "estimated_diameter_max" : 0.0097138403
        },
        "feet" : {
          "estimated_diameter_min" : 22.9371802696,
          "estimated_diameter_max" : 51.289094295
        }
      },
      "is_potentially_hazardous_asteroid" : false,
      "close_approach_data" : [ {
        "close_approach_date" : "2006-05-15",
        "epoch_date_close_approach" : 1147676400000,
        "relative_velocity" : {
          "kilometers_per_second" : "4.8429110834",
          "kilometers_per_hour" : "17434.4799004012",
          "miles_per_hour" : "10833.1078025576"
        },
        "miss_distance" : {
          "astronomical" : "0.1624858433",
          "lunar" : "63.2069892883",
          "kilometers" : "24307536",
          "miles" : "15104002"
        },
        "orbiting_body" : "Earth"
      } ],
      "orbital_data" : {
        "orbit_id" : "3",
        "orbit_determination_date" : "2017-04-06 08:29:49",
        "orbit_uncertainty" : "5",
        "minimum_orbit_intersection" : ".000121432",
        "jupiter_tisserand_invariant" : "6.373",
        "epoch_osculation" : "2458000.5",
        "eccentricity" : ".2332512752434219",
        "semi_major_axis" : ".9372571847495063",
        "inclination" : "5.693784835120426",
        "ascending_node_longitude" : "257.4272576214453",
        "orbital_period" : "331.4260144696111",
        "perihelion_distance" : ".7186407511756244",
        "perihelion_argument" : "64.91302832998045",
        "aphelion_distance" : "1.155873618323388",
        "perihelion_time" : "2457946.853726711879",
        "mean_anomaly" : "58.27140158152655",
        "mean_motion" : "1.086215276661721",
        "equinox" : "J2000"
      }
    } ]
  }
}